QIANFAN-105             
1 66047U 25233Q   25345.56118302  .00000470  00000+0  31728-3 0  9997
2 66047  88.9962  62.2638 0016739  47.7873 312.4722 13.98692025  7829
QIANFAN-106             
1 66048U 25233R   25345.63365890  .00000079  00000+0  57827-4 0  9996
2 66048  88.9955  62.2729 0017099  47.2873 312.9734 13.85184685  7820
QIANFAN-107             
1 66049U 25233S   25345.47462578  .00000190  00000+0  15786-3 0  9991
2 66049  88.9956  62.2860 0016414  50.1974 310.0638 13.84321151  7803
QIANFAN-108             
1 66050U 25233T   25345.62583265  .00000203  00000+0  16959-3 0  9995
2 66050  88.9958  62.2722 0016680  51.2224 309.0433 13.84462653  7825
